LYNK TOWER 5            
1 59121U 24043Z   26068.92489786  .00009048  00000+0  31902-3 0  9994
2 59121  97.5458 204.7305 0010406 234.6422 125.3846 15.29454506111860
STARLINK-36129          
1 66874U 25281AC  26068.15523885  .00035237  00000+0  12841-2 0  9995
2 66874  43.0031 346.5022 0001675 285.5594  74.5073 15.27575623 16098
