[{"OBJECT_NAME":"LYNK TOWER 5","OBJECT_ID":"2024-043Z","EPOCH":"2026-03-09T22:11:51.175104","MEAN_MOTION":15.29454506,"ECCENTRICITY":0.00104056,"INCLINATION":97.5458,"RA_OF_ASC_NODE":204.7305,"ARG_OF_PERICENTER":234.6422,"MEAN_ANOMALY":125.3846,"EPHEMERIS_TYPE":0,"CLASSIFICATION_TYPE":"U","NORAD_CAT_ID":59121,"ELEMENT_SET_NO":999,"REV_AT_EPOCH":11186,"BSTAR":0.00031901545,"MEAN_MOTION_DOT":9.048e-5,"MEAN_MOTION_DDOT":0},{"OBJECT_NAME":"STARLINK-36129","OBJECT_ID":"2025-281AC","EPOCH":"2026-03-09T03:43:32.636640","MEAN_MOTION":15.27575623,"ECCENTRICITY":0.00016754,"INCLINATION":43.0031,"RA_OF_ASC_NODE":346.5022,"ARG_OF_PERICENTER":285.5594,"MEAN_ANOMALY":74.5073,"EPHEMERIS_TYPE":0,"CLASSIFICATION_TYPE":"U","NORAD_CAT_ID":66874,"ELEMENT_SET_NO":999,"REV_AT_EPOCH":1609,"BSTAR":0.0012840742,"MEAN_MOTION_DOT":0.00035237,"MEAN_MOTION_DDOT":0}]
